[{"OBJECT_NAME":"ISS (ZARYA)","OBJECT_ID":"1998-067A","EPOCH":"2026-04-04T01:39:43.591392","MEAN_MOTION":15.4875813,"ECCENTRICITY":0.00062512,"INCLINATION":51.6326,"RA_OF_ASC_NODE":306.884,"ARG_OF_PERICENTER":269.7954,"MEAN_ANOMALY":90.2318,"EPHEMERIS_TYPE":0,"CLASSIFICATION_TYPE":"U","NORAD_CAT_ID":25544,"ELEMENT_SET_NO":999,"REV_AT_EPOCH":56026,"BSTAR":0.00022464475,"MEAN_MOTION_DOT":0.00011847,"MEAN_MOTION_DDOT":0},{"OBJECT_NAME":"POISK","OBJECT_ID":"2009-060A","EPOCH":"2026-04-04T01:39:43.591392","MEAN_MOTION":15.4875813,"ECCENTRICITY":0.00062512,"INCLINATION":51.6326,"RA_OF_ASC_NODE":306.884,"ARG_OF_PERICENTER":269.7954,"MEAN_ANOMALY":90.2318,"EPHEMERIS_TYPE":0,"CLASSIFICATION_TYPE":"U","NORAD_CAT_ID":36086,"ELEMENT_SET_NO":999,"REV_AT_EPOCH":55958,"BSTAR":0.00022464475,"MEAN_MOTION_DOT":0.00011847,"MEAN_MOTION_DDOT":0},{"OBJECT_NAME":"CSS (TIANHE)","OBJECT_ID":"2021-035A","EPOCH":"2026-04-04T07:14:10.655808","MEAN_MOTION":15.62002278,"ECCENTRICITY":0.0003749,"INCLINATION":41.4679,"RA_OF_ASC_NODE":52.1686,"ARG_OF_PERICENTER":122.2718,"MEAN_ANOMALY":237.8485,"EPHEMERIS_TYPE":0,"CLASSIFICATION_TYPE":"U","NORAD_CAT_ID":48274,"ELEMENT_SET_NO":999,"REV_AT_EPOCH":28161,"BSTAR":0.00044965,"MEAN_MOTION_DOT":0.00040275,"MEAN_MOTION_DDOT":0},{"OBJECT_NAME":"ISS (NAUKA)","OBJECT_ID":"2021-066A","EPOCH":"2026-04-04T01:39:43.591392","MEAN_MOTION":15.4875813,"ECCENTRICITY":0.00062512,"INCLINATION":51.6326,"RA_OF_ASC_NODE":306.884,"ARG_OF_PERICENTER":269.7954,"MEAN_ANOMALY":90.2318,"EPHEMERIS_TYPE":0,"CLASSIFICATION_TYPE":"U","NORAD_CAT_ID":49044,"ELEMENT_SET_NO":999,"REV_AT_EPOCH":55962,"BSTAR":0.00022464475,"MEAN_MOTION_DOT":0.00011847,"MEAN_MOTION_DDOT":0},{"OBJECT_NAME":"FREGAT DEB","OBJECT_ID":"2011-037PF","EPOCH":"2026-04-04T07:17:57.568128","MEAN_MOTION":12.40917042,"ECCENTRICITY":0.09559866,"INCLINATION":51.6425,"RA_OF_ASC_NODE":223.8351,"ARG_OF_PERICENTER":118.1292,"MEAN_ANOMALY":251.9488,"EPHEMERIS_TYPE":0,"CLASSIFICATION_TYPE":"U","NORAD_CAT_ID":49271,"ELEMENT_SET_NO":999,"REV_AT_EPOCH":21587,"BSTAR":0.022750717,"MEAN_MOTION_DOT":0.00015789,"MEAN_MOTION_DDOT":0},{"OBJECT_NAME":"CSS (WENTIAN)","OBJECT_ID":"2022-085A","EPOCH":"2026-04-04T07:14:10.655808","MEAN_MOTION":15.62002278,"ECCENTRICITY":0.0003749,"INCLINATION":41.4679,"RA_OF_ASC_NODE":52.1686,"ARG_OF_PERICENTER":122.2718,"MEAN_ANOMALY":237.8485,"EPHEMERIS_TYPE":0,"CLASSIFICATION_TYPE":"U","NORAD_CAT_ID":53239,"ELEMENT_SET_NO":999,"REV_AT_EPOCH":28187,"BSTAR":0.00044965,"MEAN_MOTION_DOT":0.00040275,"MEAN_MOTION_DDOT":0},{"OBJECT_NAME":"CSS (MENGTIAN)","OBJECT_ID":"2022-143A","EPOCH":"2026-04-04T07:14:10.655808","MEAN_MOTION":15.62002278,"ECCENTRICITY":0.0003749,"INCLINATION":41.4679,"RA_OF_ASC_NODE":52.1686,"ARG_OF_PERICENTER":122.2718,"MEAN_ANOMALY":237.8485,"EPHEMERIS_TYPE":0,"CLASSIFICATION_TYPE":"U","NORAD_CAT_ID":54216,"ELEMENT_SET_NO":999,"REV_AT_EPOCH":28187,"BSTAR":0.00044965,"MEAN_MOTION_DOT":0.00040275,"MEAN_MOTION_DDOT":0},{"OBJECT_NAME":"TIANZHOU-9","OBJECT_ID":"2025-149A","EPOCH":"2026-04-04T07:14:10.655808","MEAN_MOTION":15.62002278,"ECCENTRICITY":0.0003749,"INCLINATION":41.4679,"RA_OF_ASC_NODE":52.1686,"ARG_OF_PERICENTER":122.2718,"MEAN_ANOMALY":237.8485,"EPHEMERIS_TYPE":0,"CLASSIFICATION_TYPE":"U","NORAD_CAT_ID":64786,"ELEMENT_SET_NO":999,"REV_AT_EPOCH":28187,"BSTAR":0.00044965,"MEAN_MOTION_DOT":0.00040275,"MEAN_MOTION_DDOT":0},{"OBJECT_NAME":"PROGRESS-MS 32","OBJECT_ID":"2025-204A","EPOCH":"2026-04-04T12:30:08.320896","MEAN_MOTION":15.48767822,"ECCENTRICITY":0.0006255,"INCLINATION":51.6327,"RA_OF_ASC_NODE":304.65,"ARG_OF_PERICENTER":271.764,"MEAN_ANOMALY":88.2632,"EPHEMERIS_TYPE":0,"CLASSIFICATION_TYPE":"U","NORAD_CAT_ID":65586,"ELEMENT_SET_NO":999,"REV_AT_EPOCH":55450,"BSTAR":0.00020867524,"MEAN_MOTION_DOT":0.00010975,"MEAN_MOTION_DDOT":0},{"OBJECT_NAME":"YOTSUBA-KULOVER","OBJECT_ID":"1998-067XN","EPOCH":"2026-04-04T18:12:36.423360","MEAN_MOTION":15.99239064,"ECCENTRICITY":0.0008036,"INCLINATION":51.6137,"RA_OF_ASC_NODE":280.579,"ARG_OF_PERICENTER":269.0076,"MEAN_ANOMALY":91.0013,"EPHEMERIS_TYPE":0,"CLASSIFICATION_TYPE":"U","NORAD_CAT_ID":65941,"ELEMENT_SET_NO":999,"REV_AT_EPOCH":2764,"BSTAR":0.0013136,"MEAN_MOTION_DOT":0.00660462,"MEAN_MOTION_DDOT":0.00020478},{"OBJECT_NAME":"BOTAN","OBJECT_ID":"1998-067XQ","EPOCH":"2026-04-04T18:36:25.399872","MEAN_MOTION":15.97619738,"ECCENTRICITY":0.0008069,"INCLINATION":51.6175,"RA_OF_ASC_NODE":280.7196,"ARG_OF_PERICENTER":265.1033,"MEAN_ANOMALY":94.9054,"EPHEMERIS_TYPE":0,"CLASSIFICATION_TYPE":"U","NORAD_CAT_ID":65943,"ELEMENT_SET_NO":999,"REV_AT_EPOCH":2764,"BSTAR":0.0013233,"MEAN_MOTION_DOT":0.00607431,"MEAN_MOTION_DDOT":0.00016927},{"OBJECT_NAME":"HRC MONOBLOCK CAMERA","OBJECT_ID":"1998-067XR","EPOCH":"2026-04-04T18:37:46.035264","MEAN_MOTION":15.65207288,"ECCENTRICITY":0.0003886,"INCLINATION":51.6269,"RA_OF_ASC_NODE":293.598,"ARG_OF_PERICENTER":223.4722,"MEAN_ANOMALY":136.5967,"EPHEMERIS_TYPE":0,"CLASSIFICATION_TYPE":"U","NORAD_CAT_ID":66052,"ELEMENT_SET_NO":999,"REV_AT_EPOCH":2647,"BSTAR":0.00070761,"MEAN_MOTION_DOT":0.00071577,"MEAN_MOTION_DDOT":0},{"OBJECT_NAME":"HTV-X1","OBJECT_ID":"2025-241A","EPOCH":"2026-04-04T20:46:04.960416","MEAN_MOTION":15.32538946,"ECCENTRICITY":0.000734,"INCLINATION":51.6361,"RA_OF_ASC_NODE":306.888,"ARG_OF_PERICENTER":273.6341,"MEAN_ANOMALY":86.3801,"EPHEMERIS_TYPE":0,"CLASSIFICATION_TYPE":"U","NORAD_CAT_ID":66174,"ELEMENT_SET_NO":999,"REV_AT_EPOCH":2495,"BSTAR":0.00024011,"MEAN_MOTION_DOT":7.298e-5,"MEAN_MOTION_DDOT":0},{"OBJECT_NAME":"SZ-21 MODULE","OBJECT_ID":"2025-246C","EPOCH":"2026-04-04T06:29:10.005216","MEAN_MOTION":15.70682632,"ECCENTRICITY":0.00032252,"INCLINATION":41.475,"RA_OF_ASC_NODE":45.653,"ARG_OF_PERICENTER":227.1909,"MEAN_ANOMALY":132.8663,"EPHEMERIS_TYPE":0,"CLASSIFICATION_TYPE":"U","NORAD_CAT_ID":66515,"ELEMENT_SET_NO":999,"REV_AT_EPOCH":2209,"BSTAR":0.00047836762,"MEAN_MOTION_DOT":0.00061134,"MEAN_MOTION_DDOT":0},{"OBJECT_NAME":"SHENZHOU-22","OBJECT_ID":"2025-272A","EPOCH":"2026-04-04T07:14:10.655808","MEAN_MOTION":15.62002278,"ECCENTRICITY":0.0003749,"INCLINATION":41.4679,"RA_OF_ASC_NODE":52.1686,"ARG_OF_PERICENTER":122.2718,"MEAN_ANOMALY":237.8485,"EPHEMERIS_TYPE":0,"CLASSIFICATION_TYPE":"U","NORAD_CAT_ID":66645,"ELEMENT_SET_NO":999,"REV_AT_EPOCH":28187,"BSTAR":0.00044965,"MEAN_MOTION_DOT":0.00040275,"MEAN_MOTION_DDOT":0},{"OBJECT_NAME":"SOYUZ-MS 28","OBJECT_ID":"2025-275A","EPOCH":"2026-04-04T20:14:42.961056","MEAN_MOTION":15.4877361,"ECCENTRICITY":0.0006326,"INCLINATION":51.6331,"RA_OF_ASC_NODE":303.0545,"ARG_OF_PERICENTER":272.5089,"MEAN_ANOMALY":87.5175,"EPHEMERIS_TYPE":0,"CLASSIFICATION_TYPE":"U","NORAD_CAT_ID":66664,"ELEMENT_SET_NO":999,"REV_AT_EPOCH":56047,"BSTAR":0.00017936,"MEAN_MOTION_DOT":9.37e-5,"MEAN_MOTION_DDOT":0}]
