ISS (ZARYA)             
1 25544U 98067A   26094.06925453  .00011847  00000+0  22464-3 0  9996
2 25544  51.6326 306.8840 0006251 269.7954  90.2318 15.48758130560264
POISK                   
1 36086U 09060A   26094.06925453  .00011847  00000+0  22464-3 0  9994
2 36086  51.6326 306.8840 0006251 269.7954  90.2318 15.48758130559580
CSS (TIANHE)            
1 48274U 21035A   26094.30151222  .00040275  00000+0  44965-3 0  9991
2 48274  41.4679  52.1686 0003749 122.2718 237.8485 15.62002278281610
ISS (NAUKA)             
1 49044U 21066A   26094.06925453  .00011847  00000+0  22464-3 0  9992
2 49044  51.6326 306.8840 0006251 269.7954  90.2318 15.48758130559623
FREGAT DEB              
1 49271U 11037PF  26094.30413852  .00015789  00000+0  22751-1 0  9999
2 49271  51.6425 223.8351 0955986 118.1292 251.9488 12.40917042215878
CSS (WENTIAN)           
1 53239U 22085A   26094.30151222  .00040275  00000+0  44965-3 0  9994
2 53239  41.4679  52.1686 0003749 122.2718 237.8485 15.62002278281875
CSS (MENGTIAN)          
1 54216U 22143A   26094.30151222  .00040275  00000+0  44965-3 0  9995
2 54216  41.4679  52.1686 0003749 122.2718 237.8485 15.62002278281871
TIANZHOU-9              
1 64786U 25149A   26094.30151222  .00040275  00000+0  44965-3 0  9997
2 64786  41.4679  52.1686 0003749 122.2718 237.8485 15.62002278281874
PROGRESS-MS 32          
1 65586U 25204A   26094.52092964  .00010975  00000+0  20868-3 0  9999
2 65586  51.6327 304.6500 0006255 271.7640  88.2632 15.48767822554507
YOTSUBA-KULOVER         
1 65941U 98067XN  26094.75875490  .00660462  20478-3  13136-2 0  9995
2 65941  51.6137 280.5790 0008036 269.0076  91.0013 15.99239064 27649
BOTAN                   
1 65943U 98067XQ  26094.77529398  .00607431  16927-3  13233-2 0  9991
2 65943  51.6175 280.7196 0008069 265.1033  94.9054 15.97619738 27646
HRC MONOBLOCK CAMERA    
1 66052U 98067XR  26094.77622726  .00071577  00000+0  70761-3 0  9999
2 66052  51.6269 293.5980 0003886 223.4722 136.5967 15.65207288 26473
HTV-X1                  
1 66174U 25241A   26094.86533519  .00007298  00000+0  24011-3 0  9995
2 66174  51.6361 306.8880 0007340 273.6341  86.3801 15.32538946 24953
SZ-21 MODULE            
1 66515U 25246C   26094.27025469  .00061134  00000+0  47837-3 0  9994
2 66515  41.4750  45.6530 0003225 227.1909 132.8663 15.70682632 22093
SHENZHOU-22             
1 66645U 25272A   26094.30151222  .00040275  00000+0  44965-3 0  9990
2 66645  41.4679  52.1686 0003749 122.2718 237.8485 15.62002278281870
SOYUZ-MS 28             
1 66664U 25275A   26094.84355279  .00009370  00000+0  17936-3 0  9990
2 66664  51.6331 303.0545 0006326 272.5089  87.5175 15.48773610560476
